{"_default": { "12": {"norad_id": "43111", "name": "CARTOSAT 2F", "tle1": "1 43111U 18004A   26202.32644076  .00001586  00000-0  78605-4 0  9997", "tle2": "2 43111  97.4761 261.6237 0002802 125.7910 234.3586 15.19198279472512", "object_type": "PAYLOAD", "criticality_score": 9.0, "last_updated": "2026-07-21T16:42:32.471020+00:00", "maneuver_count": 0, "owner": "IND"}, "44": {"norad_id": "42847", "name": "CORVUS BC1", "tle1": "1 42847U 17042Y   26202.26197657  .00002474  00000-0  17071-3 0  9990", "tle2": "2 42847  97.4130   3.1336 0011049 338.2766  21.7991 15.06643302492225", "object_type": "PAYLOAD", "criticality_score": 9.0, "last_updated": "2026-07-21T16:42:32.471020+00:00", "maneuver_count": 0, "owner": "US"}, "45": {"norad_id": "42828", "name": "NORSAT 2", "tle1": "1 42828U 17042D   26202.27550744  .00007815  00000-0  33993-3 0  9995", "tle2": "2 42828  97.4066  15.1941 0007963 293.3007  66.7391 15.22500896492924", "object_type": "PAYLOAD", "criticality_score": 9.0, "last_updated": "2026-07-21T16:42:32.471020+00:00", "maneuver_count": 0, "owner": "NOR"}, "46": {"norad_id": "42767", "name": "CARTOSAT 2E", "tle1": "1 42767U 17036C   26202.29358429  .00003143  00000-0  15219-3 0  9999", "tle2": "2 42767  97.4253 261.5301 0004001 168.0266 192.1064 15.19282999503321", "object_type": "PAYLOAD", "criticality_score": 9.0, "last_updated": "2026-07-21T16:42:32.471020+00:00", "maneuver_count": 0, "owner": "IND"}, "80": {"norad_id": "43017", "name": "AO-91", "tle1": "1 43017U 17073E   26202.13716042  .00004895  00000-0  21386-3 0  9998", "tle2": "2 43017  97.4661  68.6602 0148513 210.7859 148.4600 15.13109870470528", "object_type": "PAYLOAD", "criticality_score": 9.0, "last_updated": "2026-07-21T16:42:32.471020+00:00", "maneuver_count": 0, "owner": "US"}, "81": {"norad_id": "43012", "name": "CZ-4C R/B", "tle1": "1 43012U 17072C   26202.26730657  .00000181  00000-0  45706-4 0  9991", "tle2": "2 43012  98.5816 311.3858 0123170  47.3538 313.7963 14.58811981461607", "object_type": "ROCKET_BODY", "criticality_score": 9.0, "last_updated": "2026-07-21T16:42:32.471020+00:00", "maneuver_count": 0, "owner": "PRC"}, "82": {"norad_id": "42829", "name": "TECHNOSAT", "tle1": "1 42829U 17042E   26202.15641112  .00001648  00000-0  11962-3 0  9993", "tle2": "2 42829  97.4324 358.5326 0016875 343.6366  16.4315 15.05131291491817", "object_type": "PAYLOAD", "criticality_score": 9.0, "last_updated": "2026-07-21T16:42:32.471020+00:00", "maneuver_count": 0, "owner": "GER"}, "83": {"norad_id": "42794", "name": "DSAT", "tle1": "1 42794U 17036AF  26202.19410218  .00006453  00000-0  29851-3 0  9997", "tle2": "2 42794  97.5583 181.0285 0082358  44.9061 315.8795 15.17459112496014", "object_type": "PAYLOAD", "criticality_score": 9.0, "last_updated": "2026-07-21T16:42:32.471020+00:00", "maneuver_count": 0, "owner": "IT"}, "107": {"norad_id": "42831", "name": "FLYING LAPTOP", "tle1": "1 42831U 17042G   26202.31182274  .00001712  00000-0  13695-3 0  9990", "tle2": "2 42831  97.4843 356.5672 0019313  13.0997 347.0725 15.01335900491576", "object_type": "PAYLOAD", "criticality_score": 9.0, "last_updated": "2026-07-21T16:42:32.471020+00:00", "maneuver_count": 0, "owner": "GER"}, "108": {"norad_id": "41948", "name": "CARTOSAT 2D", "tle1": "1 41948U 17008A   26202.27569890  .00002597  00000-0  12617-3 0  9993", "tle2": "2 41948  97.4084 260.9413 0006544 122.5381 237.6487 15.19311987522759", "object_type": "PAYLOAD", "criticality_score": 9.0, "last_updated": "2026-07-21T16:42:32.471020+00:00", "maneuver_count": 0, "owner": "IND"}, "150": {"norad_id": "42846", "name": "CORVUS BC2", "tle1": "1 42846U 17042X   26202.27110942  .00002193  00000-0  15236-3 0  9991", "tle2": "2 42846  97.4097   2.3063 0012818   2.0546 358.0732 15.06476999492192", "object_type": "PAYLOAD", "criticality_score": 9.0, "last_updated": "2026-07-21T16:42:32.471020+00:00", "maneuver_count": 0, "owner": "US"}, "180": {"norad_id": "43016", "name": "MAKERSAT 0", "tle1": "1 43016U 17073D   26201.47765744  .00012875  00000-0  33826-3 0  9995", "tle2": "2 43016  97.4572  84.2716 0105716 153.5455 207.1240 15.33132517471566", "object_type": "PAYLOAD", "criticality_score": 9.0, "last_updated": "2026-07-21T16:42:32.471020+00:00", "maneuver_count": 0, "owner": "US"}, "189": {"norad_id": "41914", "name": "JILIN-1-03", "tle1": "1 41914U 17002B   26202.29002263  .00010234  00000-0  23916-3 0  9999", "tle2": "2 41914  97.1959 208.9128 0007503  63.0672 297.1341 15.42331250527119", "object_type": "PAYLOAD", "criticality_score": 9.0, "last_updated": "2026-07-21T16:42:32.471020+00:00", "maneuver_count": 0, "owner": "PRC"}, "191": {"norad_id": "43022", "name": "JILIN-01-04", "tle1": "1 43022U 17074A   26202.26563248  .00010978  00000-0  24900-3 0  9991", "tle2": "2 43022  97.4872 312.8112 0005138  84.3618 275.8215 15.43236525479528", "object_type": "PAYLOAD", "criticality_score": 9.0, "last_updated": "2026-07-21T16:42:32.471020+00:00", "maneuver_count": 0, "owner": "PRC"}, "192": {"norad_id": "43023", "name": "JILIN-01-05", "tle1": "1 43023U 17074B   26202.23422742  .00006292  00000-0  19157-3 0  9994", "tle2": "2 43023  97.4877 308.8640 0006593 108.0888 252.1073 15.34344278479226", "object_type": "PAYLOAD", "criticality_score": 9.0, "last_updated": "2026-07-21T16:42:32.471020+00:00", "maneuver_count": 0, "owner": "PRC"}, "193": {"norad_id": "43024", "name": "JILIN-01-06", "tle1": "1 43024U 17074C   26202.27652747  .00004931  00000-0  15206-3 0  9998", "tle2": "2 43024  97.4801 305.8700 0008367 116.3199 243.8904 15.34042342479065", "object_type": "PAYLOAD", "criticality_score": 9.0, "last_updated": "2026-07-21T16:42:32.471020+00:00", "maneuver_count": 0, "owner": "PRC"}, "217": {"norad_id": "43010", "name": "FENGYUN 3D", "tle1": "1 43010U 17072A   26202.25707753  .00000320  00000-0  17294-3 0  9994", "tle2": "2 43010  99.0156 177.2992 0001156   2.3514 357.7666 14.19746473449828", "object_type": "PAYLOAD", "criticality_score": 9.0, "last_updated": "2026-07-21T16:42:32.471020+00:00", "maneuver_count": 0, "owner": "PRC"}, "221": {"norad_id": "43013", "name": "NOAA 20", "tle1": "1 43013U 17073A   26202.25764524  .00000019  00000-0  29945-4 0  9999", "tle2": "2 43013  98.7772 141.4186 0001592 117.9935 242.1403 14.19517260449302", "object_type": "PAYLOAD", "criticality_score": 9.0, "last_updated": "2026-07-21T16:42:32.471020+00:00", "maneuver_count": 0, "owner": "US"}, "232": {"norad_id": "42840", "name": "LEMUR 2 FURIAUS", "tle1": "1 42840U 17042R   26202.00668472  .00012240  00000-0  40768-3 0  9994", "tle2": "2 42840  97.3789  20.3821 0005679 304.6433  55.4272 15.31249211493380", "object_type": "PAYLOAD", "criticality_score": 9.0, "last_updated": "2026-07-21T16:42:32.471020+00:00", "maneuver_count": 0, "owner": "US"}, "239": {"norad_id": "42835", "name": "WNISAT 1R", "tle1": "1 42835U 17042L   26202.00530983  .00000607  00000-0  50890-4 0  9995", "tle2": "2 42835  97.4813 356.9189 0010074  45.7249 314.4801 15.01865137491585", "object_type": "PAYLOAD", "criticality_score": 9.0, "last_updated": "2026-07-21T16:42:32.471020+00:00", "maneuver_count": 0, "owner": "JPN"}, "293": {"norad_id": "43005", "name": "MOHAMMED VI-A", "tle1": "1 43005U 17070A   26202.28501709 -.00000045  00000-0  80944-6 0  9992", "tle2": "2 43005  97.9539 274.1444 0001305 102.3191 257.8165 14.77105055469017", "object_type": "PAYLOAD", "criticality_score": 9.0, "last_updated": "2026-07-21T16:42:32.471020+00:00", "maneuver_count": 0, "owner": "MA"}, "348": {"norad_id": "43072", "name": "IRIDIUM 116", "tle1": "1 43072U 17083C   26202.26202866  .00000162  00000-0  50691-4 0  9993", "tle2": "2 43072  86.3985 307.7582 0002508  97.0762 263.0719 14.34217462449059", "object_type": "PAYLOAD", "criticality_score": 9.0, "last_updated": "2026-07-21T16:42:32.471020+00:00", "maneuver_count": 0, "owner": "US"}, "349": {"norad_id": "42803", "name": "IRIDIUM 113", "tle1": "1 42803U 17039A   26202.00832365  .00000052  00000-0  11661-4 0  9992", "tle2": "2 42803  86.3991 308.0440 0002123  93.0056 267.1383 14.34217785476037", "object_type": "PAYLOAD", "criticality_score": 9.0, "last_updated": "2026-07-21T16:42:32.471020+00:00", "maneuver_count": 0, "owner": "US"}, "350": {"norad_id": "43073", "name": "IRIDIUM 130", "tle1": "1 43073U 17083D   26202.30008328  .00000352  00000-0  11861-3 0  9992", "tle2": "2 43073  86.3996 308.0210 0002349 100.8728 259.2733 14.34219098449007", "object_type": "PAYLOAD", "criticality_score": 9.0, "last_updated": "2026-07-21T16:42:32.471020+00:00", "maneuver_count": 0, "owner": "US"}, "417": {"norad_id": "43152", "name": "ASNARO-2", "tle1": "1 43152U 18007A   26202.29863238  .00006824  00000-0  29818-3 0  9995", "tle2": "2 43152  97.3982 208.6932 0001813  89.8313 270.3131 15.22417077472602", "object_type": "PAYLOAD", "criticality_score": 9.0, "last_updated": "2026-07-21T16:42:32.471020+00:00", "maneuver_count": 0, "owner": "JPN"}, "419": {"norad_id": "43099", "name": "SUPERVIEW-1 03", "tle1": "1 43099U 18002A   26202.28235312  .00012544  00000-0  30117-3 0  9995", "tle2": "2 43099  97.3120 287.0924 0046445  59.7658 300.8174 15.40346985473613", "object_type": "PAYLOAD", "criticality_score": 9.0, "last_updated": "2026-07-21T16:42:32.471020+00:00", "maneuver_count": 0, "owner": "PRC"}, "437": {"norad_id": "42837", "name": "LEMUR 2 GREENBERG", "tle1": "1 42837U 17042N   26202.18581904  .00012759  00000-0  41140-3 0  9993", "tle2": "2 42837  97.3842  22.6818 0007481 234.7479 125.3063 15.32272934493590", "object_type": "PAYLOAD", "criticality_score": 9.0, "last_updated": "2026-07-21T16:42:32.471020+00:00", "maneuver_count": 0, "owner": "US"}, "499": {"norad_id": "43146", "name": "LKW-3", "tle1": "1 43146U 18006A   26202.26540269  .00007567  00000-0  21951-3 0  9995", "tle2": "2 43146  97.6651   4.1921 0003558 160.3528 199.7852 15.35826960473940", "object_type": "PAYLOAD", "criticality_score": 9.0, "last_updated": "2026-07-21T16:42:32.471020+00:00", "maneuver_count": 0, "owner": "PRC"}, "506": {"norad_id": "43080", "name": "LKW-2", "tle1": "1 43080U 17084A   26202.31081659  .00004516  00000-0  17438-3 0  9992", "tle2": "2 43080  97.1177 240.5174 0003878 109.5384 250.6275 15.26738215476899", "object_type": "PAYLOAD", "criticality_score": 9.0, "last_updated": "2026-07-21T16:42:32.471020+00:00", "maneuver_count": 0, "owner": "PRC"}, "527": {"norad_id": "42954", "name": "VRSS-2", "tle1": "1 42954U 17060A   26202.30147619 -.00000171  00000-0 -15528-4 0  9997", "tle2": "2 42954  97.6496 238.4899 0016808 353.9728   6.1281 14.81241108473507", "object_type": "PAYLOAD", "criticality_score": 9.0, "last_updated": "2026-07-21T16:42:32.471020+00:00", "maneuver_count": 0, "owner": "VENZ"}}}