OBJECT_NAME,OBJECT_ID,EPOCH,MEAN_MOTION,ECCENTRICITY,INCLINATION,RA_OF_ASC_NODE,ARG_OF_PERICENTER,MEAN_ANOMALY,EPHEMERIS_TYPE,CLASSIFICATION_TYPE,NORAD_CAT_ID,ELEMENT_SET_NO,REV_AT_EPOCH,BSTAR,MEAN_MOTION_DOT,MEAN_MOTION_DDOT
JILIN-1 03,2017-002B,2026-07-21T06:57:37.955232,15.42331250,.00075028,97.1959,208.9128,63.0672,297.1341,0,U,41914,999,52711,.23915674E-3,.10234E-3,0
CARTOSAT-2D,2017-008A,2026-07-21T06:37:00.384960,15.19311987,.00065442,97.4084,260.9413,122.5381,237.6487,0,U,41948,999,52275,.12616982E-3,.2597E-4,0
CARTOSAT-2E,2017-036C,2026-07-21T07:02:45.682656,15.19282999,.00040007,97.4253,261.5301,168.0266,192.1064,0,U,42767,999,50332,.15218515E-3,.3143E-4,0
D-SAT,2017-036AF,2026-07-21T04:39:30.428352,15.17459112,.00823576,97.5583,181.0285,44.9061,315.8795,0,U,42794,999,49601,.29850692E-3,.6453E-4,0
IRIDIUM 113,2017-039A,2026-07-21T00:11:59.163360,14.34217785,.00021227,86.3991,308.0440,93.0056,267.1383,0,U,42803,999,47603,.11660956E-4,.52E-6,0
NORSAT 2,2017-042D,2026-07-21T06:36:43.842816,15.22500896,.00079629,97.4066,15.1941,293.3007,66.7391,0,U,42828,999,49292,.33992825E-3,.7815E-4,0
TECHNOSAT,2017-042E,2026-07-21T03:45:13.920768,15.05131291,.00168749,97.4324,358.5326,343.6366,16.4315,0,U,42829,999,49181,.11962184E-3,.1648E-4,0
FLYING LAPTOP,2017-042G,2026-07-21T07:29:01.484736,15.01335900,.00193127,97.4843,356.5672,13.0997,347.0725,0,U,42831,999,49157,.13694556E-3,.1712E-4,0
WNISAT 1R,2017-042L,2026-07-21T00:07:38.769312,15.01865137,.0010074,97.4813,356.9189,45.7249,314.4801,0,U,42835,999,49158,.50890098E-4,.607E-5,0
LEMUR-2-GREENBERG,2017-042N,2026-07-21T04:27:34.765056,15.32272934,.00074813,97.3842,22.6818,234.7479,125.3063,0,U,42837,999,49359,.41140494E-3,.12759E-3,0
LEMUR-2-FURIAUS,2017-042R,2026-07-21T00:09:37.559808,15.31249211,.00056786,97.3789,20.3821,304.6433,55.4272,0,U,42840,999,49338,.40767871E-3,.1224E-3,0
CORVUS BC2,2017-042X,2026-07-21T06:30:23.853888,15.06476999,.00128175,97.4097,2.3063,2.0546,358.0732,0,U,42846,999,49219,.15235962E-3,.2193E-4,0
CORVUS BC1,2017-042Y,2026-07-21T06:17:14.775648,15.06643302,.00110495,97.4130,3.1336,338.2766,21.7991,0,U,42847,999,49222,.17071221E-3,.2474E-4,0
VRSS-2,2017-060A,2026-07-21T07:14:07.542816,14.81241108,.00168085,97.6496,238.4899,353.9728,6.1281,0,U,42954,999,47350,-.15527536E-4,-.171E-5,0
MOHAMMED VI-A,2017-070A,2026-07-21T06:50:25.476576,14.77105055,.00013046,97.9539,274.1444,102.3191,257.8165,0,U,43005,999,46901,.809444E-6,-.45E-6,0
FENGYUN 3D,2017-072A,2026-07-21T06:10:11.498592,14.19746473,.00011559,99.0156,177.2992,2.3514,357.7666,0,U,43010,999,44982,.17294237E-3,.32E-5,0
CZ-4C R/B,2017-072C,2026-07-21T06:24:55.287648,14.58811981,.01231703,98.5816,311.3858,47.3538,313.7963,0,U,43012,999,46160,.4570597E-4,.181E-5,0
NOAA 20 (JPSS-1),2017-073A,2026-07-21T06:11:00.548736,14.19517260,.00015925,98.7772,141.4186,117.9935,242.1403,0,U,43013,999,44930,.29944514E-4,.19E-6,0
MAKERSAT 0,2017-073D,2026-07-20T11:27:49.602816,15.33132517,.01057163,97.4572,84.2716,153.5455,207.1240,0,U,43016,999,47156,.33826306E-3,.12875E-3,0
RADFXSAT (FOX-1B),2017-073E,2026-07-21T03:17:30.660288,15.13109870,.01485129,97.4661,68.6602,210.7859,148.4600,0,U,43017,999,47052,.21386164E-3,.4895E-4,0
JILIN-1 04,2017-074A,2026-07-21T06:22:30.646272,15.43236525,.00051384,97.4872,312.8112,84.3618,275.8215,0,U,43022,999,47952,.24900407E-3,.10978E-3,0
JILIN-1 05,2017-074B,2026-07-21T05:37:17.249088,15.34344278,.00065926,97.4877,308.8640,108.0888,252.1073,0,U,43023,999,47922,.19157253E-3,.6292E-4,0
JILIN-1 06,2017-074C,2026-07-21T06:38:11.973408,15.34042342,.00083669,97.4801,305.8700,116.3199,243.8904,0,U,43024,999,47906,.1520558E-3,.4931E-4,0
IRIDIUM 116,2017-083C,2026-07-21T06:17:19.276224,14.34217462,.00025081,86.3985,307.7582,97.0762,263.0719,0,U,43072,999,44905,.50691392E-4,.162E-5,0
IRIDIUM 130,2017-083D,2026-07-21T07:12:07.195392,14.34219098,.00023489,86.3996,308.0210,100.8728,259.2733,0,U,43073,999,44900,.11861018E-3,.352E-5,0
LKW-2,2017-084A,2026-07-21T07:27:34.553376,15.26738215,.00038778,97.1177,240.5174,109.5384,250.6275,0,U,43080,999,47689,.17438352E-3,.4516E-4,0
SUPERVIEW-1 03,2018-002A,2026-07-21T06:46:35.309568,15.40346985,.00464455,97.3120,287.0924,59.7658,300.8174,0,U,43099,999,47361,.30117127E-3,.12544E-3,0
CARTOSAT-2F,2018-004A,2026-07-21T07:50:04.481664,15.19198279,.00028024,97.4761,261.6237,125.7910,234.3586,0,U,43111,999,47251,.78604572E-4,.1586E-4,0
LKW-3,2018-006A,2026-07-21T06:22:10.792416,15.35826960,.00035576,97.6651,4.1921,160.3528,199.7852,0,U,43146,999,47394,.21951493E-3,.7567E-4,0
ASNARO-2,2018-007A,2026-07-21T07:10:01.837632,15.22417077,.00018133,97.3982,208.6932,89.8313,270.3131,0,U,43152,999,47260,.29818449E-3,.6824E-4,0
